XRISM                   
1 57800U 23137A   24084.95264304  .00020259  00000+0  15786-2 0  9993
2 57800  31.0028 188.3428 0010098  94.5483 265.6306 15.00060095 30020
